[{"OBJECT_NAME":"SITRO-AIS 5 (KATYS)","OBJECT_ID":"2023-091L","EPOCH":"2026-03-09T22:36:44.932608","MEAN_MOTION":15.27079182,"ECCENTRICITY":0.00133776,"INCLINATION":97.5176,"RA_OF_ASC_NODE":132.0172,"ARG_OF_PERICENTER":94.5677,"MEAN_ANOMALY":265.709,"EPHEMERIS_TYPE":0,"CLASSIFICATION_TYPE":"U","NORAD_CAT_ID":57176,"ELEMENT_SET_NO":999,"REV_AT_EPOCH":14918,"BSTAR":0.00057530772,"MEAN_MOTION_DOT":0.00015262,"MEAN_MOTION_DDOT":0},{"OBJECT_NAME":"STARLINK-32870","OBJECT_ID":"2025-032P","EPOCH":"2026-03-09T03:07:54.041376","MEAN_MOTION":15.27553727,"ECCENTRICITY":8.026e-5,"INCLINATION":42.9983,"RA_OF_ASC_NODE":339.2818,"ARG_OF_PERICENTER":299.9578,"MEAN_ANOMALY":60.1194,"EPHEMERIS_TYPE":0,"CLASSIFICATION_TYPE":"U","NORAD_CAT_ID":63018,"ELEMENT_SET_NO":999,"REV_AT_EPOCH":6053,"BSTAR":0.00085278621,"MEAN_MOTION_DOT":0.0002326,"MEAN_MOTION_DDOT":0}]
